NORAD_CAT_ID,OBJECT_NAME,OBJECT_TYPE,EPOCH,MEAN_MOTION,ECCENTRICITY,INCLINATION,RA_OF_ASC_NODE,ARG_OF_PERICENTER,MEAN_ANOMALY,BSTAR,MEAN_MOTION_DOT,MEAN_MOTION_DDOT,TLE_LINE0,TLE_LINE1,TLE_LINE2,SEMIMAJOR_AXIS,PERIOD,APOGEE,PERIGEE,DECAYED
55639.0,STARLINK-5508,PAYLOAD,2024-08-11 08:45:32,14.98363722,0.0003437,69.9993,195.0411,263.8412,96.2356,0.00035717,4.175e-05,0.0,0 STARLINK-5508,1 55639U 23021M   24224.36495802  .00004175  00000-0  35717-3 0  9990,2 55639  69.9993 195.0411 0003437 263.8412  96.2356 14.98363722 82319,6950.089,96.105,574.342,569.565,0.0
55639.0,STARLINK-5508,PAYLOAD,2024-08-11 21:34:39,14.98334023,0.0002477,70.0003,193.6949,277.054,83.0337,8.8523e-05,9.64e-06,0.0,0 STARLINK-5508,1 55639U 23021M   24224.89906357  .00000964  00000-0  88523-4 0  9996,2 55639  70.0003 193.6949 0002477 277.0540  83.0337 14.98334023 82399,6950.18,96.107,573.767,570.324,0.0
55639.0,STARLINK-5508,PAYLOAD,2024-08-12 02:23:04,14.98322095,0.0003102,70.0001,193.1898,271.5435,88.5368,-4.4338e-05,-6.22e-06,0.0,0 STARLINK-5508,1 55639U 23021M   24225.09935340 -.00000622  00000-0 -44338-4 0  9992,2 55639  70.0001 193.1898 0003102 271.5435  88.5368 14.98322095 82427,6950.217,96.108,574.238,569.926,0.0
55639.0,STARLINK-5508,PAYLOAD,2024-08-12 08:47:35,14.98329529,0.0003177,69.9995,192.5147,270.2125,89.867,2.2553e-05,1.76e-06,0.0,0 STARLINK-5508,1 55639U 23021M   24225.36638586  .00000176  00000-0  22553-4 0  9991,2 55639  69.9995 192.5147 0003177 270.2125  89.8670 14.98329529 82463,6950.194,96.107,574.267,569.851,0.0
55639.0,STARLINK-5508,PAYLOAD,2024-08-12 23:12:48,14.98342027,0.000292,70.0005,191.0002,270.0323,90.0502,-0.00015908,-1.991e-05,0.0,0 STARLINK-5508,1 55639U 23021M   24225.96722312 -.00001991  00000-0 -15908-3 0  9991,2 55639  70.0005 191.0002 0002920 270.0323  90.0502 14.98342027 82854,6950.156,96.106,574.05,569.991,0.0
55639.0,STARLINK-5508,PAYLOAD,2024-08-13 07:13:28,14.98342243,0.0003215,69.9995,190.1604,268.9402,91.1389,-0.00021487,-2.657e-05,0.0,0 STARLINK-5508,1 55639U 23021M   24226.30102146 -.00002657  00000-0 -21487-3 0  9996,2 55639  69.9995 190.1604 0003215 268.9402  91.1389 14.98342243 82607,6950.155,96.106,574.255,569.786,0.0
55639.0,STARLINK-5508,PAYLOAD,2024-08-13 21:38:43,14.98297549,0.0002934,70.0,188.6456,272.6244,87.4579,-8.4215e-05,-1.097e-05,0.0,0 STARLINK-5508,1 55639U 23021M   24226.90189189 -.00001097  00000-0 -84215-4 0  9990,2 55639  70.0000 188.6456 0002934 272.6244  87.4579 14.98297549 82693,6950.293,96.109,574.197,570.119,0.0
55639.0,STARLINK-5508,PAYLOAD,2024-08-13 23:14:51,14.98293996,0.0003155,69.9994,188.4759,270.1114,89.9684,-0.00010464,-1.34e-05,0.0,0 STARLINK-5508,1 55639U 23021M   24226.96865544 -.00001340  00000-0 -10464-3 0  9997,2 55639  69.9994 188.4759 0003155 270.1114  89.9684 14.98293996 83003,6950.304,96.109,574.362,569.976,0.0
55639.0,STARLINK-5508,PAYLOAD,2024-08-14 07:15:32,14.98293682,0.0002981,69.9998,187.6343,264.9989,95.083,-0.00018257,-2.269e-05,0.0,0 STARLINK-5508,1 55639U 23021M   24227.30246464 -.00002269  00000-0 -18257-3 0  9999,2 55639  69.9998 187.6343 0002981 264.9989  95.0830 14.98293682 83052,6950.305,96.109,574.242,570.098,0.0
55639.0,STARLINK-5508,PAYLOAD,2024-08-14 15:16:11,14.98320306,0.0003656,69.9974,186.7946,267.9782,92.0958,-0.00014678,-1.844e-05,0.0,0 STARLINK-5508,1 55639U 23021M   24227.63624971 -.00001844  00000-0 -14678-3 0  9999,2 55639  69.9974 186.7946 0003656 267.9782  92.0958 14.98320306 82803,6950.223,96.108,574.629,569.547,0.0
55639.0,STARLINK-5508,PAYLOAD,2024-08-14 21:40:44,14.98314665,0.0003639,69.9988,186.1197,265.2662,94.8082,6.9877e-05,7.4e-06,0.0,0 STARLINK-5508,1 55639U 23021M   24227.90329058  .00000740  00000-0  69877-4 0  9991,2 55639  69.9988 186.1197 0003639 265.2662  94.8082 14.98314665 83146,6950.24,96.108,574.635,569.576,0.0
55639.0,STARLINK-5508,PAYLOAD,2024-08-15 04:05:15,14.98331012,0.0003229,69.9994,185.4462,266.8685,93.2105,0.00019097,2.186e-05,0.0,0 STARLINK-5508,1 55639U 23021M   24228.17032056  .00002186  00000-0  19097-3 0  9994,2 55639  69.9994 185.4462 0003229 266.8685  93.2105 14.98331012 82881,6950.19,96.107,574.299,569.811,0.0
55639.0,STARLINK-5508,PAYLOAD,2024-08-15 07:17:31,14.98336562,0.0003422,69.9988,185.1098,267.3265,92.7502,0.00026803,3.107e-05,0.0,0 STARLINK-5508,1 55639U 23021M   24228.30383586  .00003107  00000-0  26803-3 0  9993,2 55639  69.9988 185.1098 0003422 267.3265  92.7502 14.98336562 83208,6950.173,96.107,574.416,569.659,0.0
55639.0,STARLINK-5508,PAYLOAD,2024-08-15 21:42:44,14.98325638,0.0003292,69.9993,183.5948,263.2233,96.8551,0.00055715,6.56e-05,0.0,0 STARLINK-5508,1 55639U 23021M   24228.90467983  .00006560  00000-0  55715-3 0  9993,2 55639  69.9993 183.5948 0003292 263.2233  96.8551 14.98325638 83295,6950.206,96.107,574.359,569.783,0.0
55639.0,STARLINK-5508,PAYLOAD,2024-08-16 04:07:16,14.98357645,0.0003355,70.0,182.9216,263.3518,96.7259,0.0010336,0.0001227,0.0,0 STARLINK-5508,1 55639U 23021M   24229.17172043  .00012270  00000-0  10336-2 0  9997,2 55639  70.0000 182.9216 0003355 263.3518  96.7259 14.98357645 83034,6950.107,96.105,574.304,569.641,0.0
55639.0,STARLINK-5508,PAYLOAD,2024-08-16 07:19:32,14.98377542,0.0003333,70.0003,182.585,261.5323,98.5459,0.001417,0.00016876,0.0,0 STARLINK-5508,1 55639U 23021M   24229.30523380  .00016876  00000-0  14170-2 0  9992,2 55639  70.0003 182.5850 0003333 261.5323  98.5459 14.98377542 83059,6950.046,96.104,574.227,569.594,0.0
55639.0,STARLINK-5508,PAYLOAD,2024-08-16 20:08:36,14.98365896,0.0001882,70.0009,181.239,250.9455,109.15,0.00070326,8.316e-05,0.0,0 STARLINK-5508,1 55639U 23021M   24229.83931005  .00008316  00000-0  70326-3 0  9993,2 55639  70.0009 181.2390 0001882 250.9455 109.1500 14.98365896 83139,6950.082,96.105,573.255,570.639,0.0
55639.0,STARLINK-5508,PAYLOAD,2024-08-16 21:44:44,14.98350376,0.0003301,70.0008,181.0705,271.0813,88.9968,0.00017656,2.015e-05,0.0,0 STARLINK-5508,1 55639U 23021M   24229.90607124  .00002015  00000-0  17656-3 0  9990,2 55639  70.0008 181.0705 0003301 271.0813  88.9968 14.98350376 83449,6950.13,96.106,574.289,569.701,0.0
55639.0,STARLINK-5508,PAYLOAD,2024-08-17 05:45:24,14.98343235,0.0002795,70.0019,180.2307,252.231,107.8544,2.3017e-06,-6.5e-07,0.0,0 STARLINK-5508,1 55639U 23021M   24230.23987235 -.00000065  00000-0  23017-5 0  9996,2 55639  70.0019 180.2307 0002795 252.2310 107.8544 14.98343235 83198,6950.152,96.106,573.96,570.074,0.0
55639.0,STARLINK-5508,PAYLOAD,2024-08-17 21:46:45,14.98337711,0.0002689,70.0027,178.5479,247.0565,113.031,-9.3606e-05,-1.21e-05,0.0,0 STARLINK-5508,1 55639U 23021M   24230.90747035 -.00001210  00000-0 -93606-4 0  9996,2 55639  70.0027 178.5479 0002689 247.0565 113.0310 14.98337711 83599,6950.169,96.107,573.903,570.165,0.0
55639.0,STARLINK-5508,PAYLOAD,2024-08-18 04:11:17,14.98335371,0.0002841,70.0012,177.8749,247.9733,112.1124,-3.8827e-05,-5.56e-06,0.0,0 STARLINK-5508,1 55639U 23021M   24231.17451378 -.00000556  00000-0 -38827-4 0  9994,2 55639  70.0012 177.8749 0002841 247.9733 112.1124 14.98335371 83336,6950.176,96.107,574.016,570.067,0.0
55639.0,STARLINK-5508,PAYLOAD,2024-08-18 05:47:25,14.98339387,0.0002678,70.0012,177.7065,251.8919,108.1948,-0.00011634,-1.481e-05,0.0,0 STARLINK-5508,1 55639U 23021M   24231.24127247 -.00001481  00000-0 -11634-3 0  9991,2 55639  70.0012 177.7065 0002678 251.8919 108.1948 14.98339387 83648,6950.164,96.106,573.89,570.168,0.0
55639.0,STARLINK-5508,PAYLOAD,2024-08-18 21:48:46,14.98333167,0.0002664,70.0011,176.0223,250.8971,109.19,4.788e-05,4.78e-06,0.0,0 STARLINK-5508,1 55639U 23021M   24231.90886942  .00000478  00000-0  47880-4 0  9994,2 55639  70.0011 176.0223 0002664 250.8971 109.1900 14.98333167 83747,6950.183,96.107,573.9,570.197,0.0
55639.0,STARLINK-5508,PAYLOAD,2024-08-19 04:13:18,14.98334828,0.0002967,70.0003,175.3479,261.7026,98.3796,3.0207e-05,2.67e-06,0.0,0 STARLINK-5508,1 55639U 23021M   24232.17590845  .00000267  00000-0  30207-4 0  9999,2 55639  70.0003 175.3479 0002967 261.7026  98.3796 14.98334828 83489,6950.178,96.107,574.105,569.981,0.0
55639.0,STARLINK-5508,PAYLOAD,2024-08-19 13:50:07,14.98331739,0.0003063,70.0,174.3372,270.2746,89.8062,-8.0225e-06,-1.89e-06,0.0,0 STARLINK-5508,1 55639U 23021M   24232.57647086 -.00000189  00000-0 -80225-5 0  9994,2 55639  70.0000 174.3372 0003063 270.2746  89.8062 14.98331739 83848,6950.188,96.107,574.181,569.924,0.0
55639.0,STARLINK-5508,PAYLOAD,2024-08-20 04:15:19,14.98328088,0.0003086,69.9999,172.8229,270.5002,89.5804,6.6002e-06,-1.4e-07,0.0,0 STARLINK-5508,1 55639U 23021M   24233.17731432 -.00000014  00000-0  66002-5 0  9993,2 55639  69.9999 172.8229 0003086 270.5002  89.5804 14.98328088 83630,6950.199,96.107,574.209,569.919,0.0
55639.0,STARLINK-5508,PAYLOAD,2024-08-20 05:51:27,14.98328991,0.0002915,70.0002,172.6542,270.4757,89.6068,3.9655e-05,3.8e-06,0.0,0 STARLINK-5508,1 55639U 23021M   24233.24407309  .00000380  00000-0  39655-4 0  9992,2 55639  70.0002 172.6542 0002915 270.4757  89.6068 14.98328991 83940,6950.196,96.107,574.087,570.035,0.0
55639.0,STARLINK-5508,PAYLOAD,2024-08-21 04:17:20,14.98337091,0.0003163,70.0001,170.298,270.1037,89.9759,9.5074e-05,1.042e-05,0.0,0 STARLINK-5508,1 55639U 23021M   24234.17870569  .00001042  00000-0  95074-4 0  9990,2 55639  70.0001 170.2980 0003163 270.1037  89.9759 14.98337091 83786,6950.171,96.107,574.234,569.838,0.0
55639.0,STARLINK-5508,PAYLOAD,2024-08-21 05:53:28,14.98343745,0.000297,70.0001,170.1298,267.9127,92.1692,5.5225e-06,-2.7e-07,0.0,0 STARLINK-5508,1 55639U 23021M   24234.24546303 -.00000027  00000-0  55225-5 0  9992,2 55639  70.0001 170.1298 0002970 267.9127  92.1692 14.98343745 84096,6950.15,96.106,574.08,569.951,0.0
55639.0,STARLINK-5508,PAYLOAD,2024-08-21 20:18:41,14.98330504,0.0002753,70.0004,168.6165,271.7322,88.3521,-7.9158e-05,-1.037e-05,0.0,0 STARLINK-5508,1 55639U 23021M   24234.84631435 -.00001037  00000-0 -79158-4 0  9992,2 55639  70.0004 168.6165 0002753 271.7322  88.3521 14.98330504 83886,6950.191,96.107,573.97,570.143,0.0
